KUIPER-00104            
1 65142U 25171L   25273.95027872  .00032749  00000+0  90484-3 0  9995
2 65142  51.8762 161.4315 0003220 316.0307  44.0423 15.36747880  8999
KUIPER-00105            
1 65143U 25171M   25274.50002315 -.00456673  00000+0 -15943-1 0  9996
2 65143  51.8789 158.7077 0006669 302.7529 236.1603 15.30980398  5450
KUIPER-00106            
1 65144U 25171N   25274.50002315  .00058424  00000+0  27123-2 0  9991
2 65144  51.8844 159.7317 0005857 293.4193  75.3725 15.19448505  5467
KUIPER-00107            
1 65145U 25171P   25274.40154895  .00076785  00000+0  20819-2 0  9997
2 65145  51.8762 159.2069 0004228 319.8344  40.2329 15.36939812  9075
KUIPER-00108            
1 65146U 25171Q   25273.96001482  .00066965  00000+0  18410-2 0  9994
2 65146  51.8764 161.4953 0004332 328.3709  31.7017 15.36572184  9008
KUIPER-00109            
1 65147U 25171R   25274.39501861  .00077241  00000+0  20732-2 0  9998
2 65147  51.8755 159.1581 0004549 305.1098  54.9462 15.37249035  9068
KUIPER-00110            
1 65148U 25171S   25274.50002315 -.00630142  00000+0 -25911-1 0  9992
2 65148  51.8788 159.1581 0006960 315.4991 354.5205 15.26005523  5914
KUIPER-00111            
1 65149U 25171T   25274.50002315 -.01019160  00000+0 -57040-1 0  9993
2 65149  51.8840 160.4449 0005804 316.8675 117.1226 15.15980437  5800
